[{"OBJECT_NAME":"SUPERVIEW NEO-1 04","OBJECT_ID":"2025-040B","EPOCH":"2026-03-06T19:28:03.599328","MEAN_MOTION":15.21660643,"ECCENTRICITY":0.00018105,"INCLINATION":97.3404,"RA_OF_ASC_NODE":182.7609,"ARG_OF_PERICENTER":125.6161,"MEAN_ANOMALY":234.5244,"EPHEMERIS_TYPE":0,"CLASSIFICATION_TYPE":"U","NORAD_CAT_ID":63126,"ELEMENT_SET_NO":999,"REV_AT_EPOCH":5662,"BSTAR":0.00040582804,"MEAN_MOTION_DOT":9.111e-5,"MEAN_MOTION_DDOT":0},{"OBJECT_NAME":"OBJECT AB","OBJECT_ID":"2025-313AB","EPOCH":"2026-03-09T21:33:15.622272","MEAN_MOTION":15.20494709,"ECCENTRICITY":0.00144255,"INCLINATION":97.4026,"RA_OF_ASC_NODE":145.1102,"ARG_OF_PERICENTER":5.4731,"MEAN_ANOMALY":354.6659,"EPHEMERIS_TYPE":0,"CLASSIFICATION_TYPE":"U","NORAD_CAT_ID":67273,"ELEMENT_SET_NO":999,"REV_AT_EPOCH":1084,"BSTAR":0.00020492613,"MEAN_MOTION_DOT":4.42e-5,"MEAN_MOTION_DDOT":0}]
